MALLIGYONG-1            
1 58400U 23179A   24018.48817403  .00008835  00000+0  38861-3 0  9991
2 58400  97.4243 267.5058 0017664  76.1549 284.1651 15.21966609  8805
